[{"OBJECT_NAME":"STARLINK-31171","OBJECT_ID":"2024-017J","EPOCH":"2026-03-09T13:39:53.655264","MEAN_MOTION":15.30187631,"ECCENTRICITY":0.0001297,"INCLINATION":53.1616,"RA_OF_ASC_NODE":181.3233,"ARG_OF_PERICENTER":95.9703,"MEAN_ANOMALY":264.1445,"EPHEMERIS_TYPE":0,"CLASSIFICATION_TYPE":"U","NORAD_CAT_ID":58834,"ELEMENT_SET_NO":999,"REV_AT_EPOCH":12036,"BSTAR":-1.087e-5,"MEAN_MOTION_DOT":-6.81e-6,"MEAN_MOTION_DDOT":0},{"OBJECT_NAME":"LYNK TOWER 6","OBJECT_ID":"2024-043AB","EPOCH":"2026-03-09T21:28:38.303328","MEAN_MOTION":15.29548678,"ECCENTRICITY":0.00097492,"INCLINATION":97.5426,"RA_OF_ASC_NODE":204.1954,"ARG_OF_PERICENTER":232.0253,"MEAN_ANOMALY":128.0107,"EPHEMERIS_TYPE":0,"CLASSIFICATION_TYPE":"U","NORAD_CAT_ID":59123,"ELEMENT_SET_NO":999,"REV_AT_EPOCH":11184,"BSTAR":0.00040142146,"MEAN_MOTION_DOT":0.0001144,"MEAN_MOTION_DDOT":0}]
